[{"OBJECT_NAME":"CELESTIS-17 & SHERPA-FX1","OBJECT_ID":"2021-006CB","EPOCH":"2026-03-09T15:26:05.078112","MEAN_MOTION":15.30994801,"ECCENTRICITY":0.000663,"INCLINATION":97.2397,"RA_OF_ASC_NODE":112.1052,"ARG_OF_PERICENTER":178.1385,"MEAN_ANOMALY":181.9882,"EPHEMERIS_TYPE":0,"CLASSIFICATION_TYPE":"U","NORAD_CAT_ID":47486,"ELEMENT_SET_NO":999,"REV_AT_EPOCH":28406,"BSTAR":0.00024301,"MEAN_MOTION_DOT":7.207e-5,"MEAN_MOTION_DDOT":0},{"OBJECT_NAME":"STARLINK-35818","OBJECT_ID":"2025-265AA","EPOCH":"2026-03-09T22:04:38.697312","MEAN_MOTION":15.27597899,"ECCENTRICITY":0.00011308,"INCLINATION":42.9979,"RA_OF_ASC_NODE":277.0618,"ARG_OF_PERICENTER":295.7589,"MEAN_ANOMALY":64.3146,"EPHEMERIS_TYPE":0,"CLASSIFICATION_TYPE":"U","NORAD_CAT_ID":66540,"ELEMENT_SET_NO":999,"REV_AT_EPOCH":1714,"BSTAR":0.0010790483,"MEAN_MOTION_DOT":0.00029566,"MEAN_MOTION_DDOT":0}]
